{"type":"FeatureCollection","features":[{"type":"Feature","properties":{},"geometry":{"coordinates":[[3.1670480275564046,50.58890027069776],[3.1671320586554543,50.589125988261145],[3.1672811643806256,50.58952448758728],[3.1674894160100564,50.59006683327479],[3.1675635362574894,50.59021759134478],[3.1675927058390414,50.59029331492016],[3.16763588756001,50.59035993845191],[3.167639245715236,50.59052325099833],[3.1676033970614696,50.590688384781544],[3.167543670041084,50.590834173120044],[3.169267475308743,50.59077050964029],[3.1696609835733653,50.590747694603195],[3.170076341157319,50.590724257439966],[3.1701270723222343,50.59071243625968],[3.1707102466465518,50.59045997821508],[3.171000066471813,50.590333280314525],[3.1711539524468333,50.5902662770294],[3.171252926373592,50.590223312160035],[3.171295479243412,50.59020717845419],[3.1713825278190484,50.590166385805276],[3.171743204715227,50.590005041441714],[3.1722135768366826,50.58979515048472],[3.172503973656603,50.5896628636238],[3.1730933085215867,50.5894053196555],[3.1743163969953727,50.58886904752711],[3.1755324651668673,50.58831594643999],[3.178137035960134,50.58713107422433],[3.1786149482678354,50.58691314197596],[3.179050429736918,50.586741816298044],[3.179493883264783,50.58654548710673],[3.179717374077221,50.58644860434427],[3.1799275467301413,50.586352936293544],[3.1803445513073854,50.58616399295363],[3.180567693756977,50.58606171971449],[3.180734776278694,50.58599111407106],[3.1807734734862834,50.58602966948925],[3.1809532008824704,50.58635145222458],[3.1811181292322885,50.58668120700739],[3.181203805584559,50.58684947864464],[3.1814616843380463,50.58675876864615],[3.1816900772302326,50.58667886088483],[3.1817868561950107,50.586640734624694],[3.1821150192771626,50.58651510395933],[3.18235276737564,50.586425133405086],[3.182611125976731,50.586329180677005],[3.1829483775155563,50.58620538078128],[3.1832539884823348,50.58609212944057],[3.1824787138415545,50.5851963508792],[3.1819016515483582,50.584531708995655],[3.181229121235539,50.58375448683846],[3.180848531292515,50.583316981965744],[3.1805361460538393,50.58295629384176],[3.1804042659254037,50.58280708946978],[3.180379862668161,50.58277340825262],[3.1803653315639053,50.58270398782544],[3.1803578255149603,50.582637958464375],[3.180698981896583,50.58188047748067],[3.1808703732184043,50.58150015130529],[3.1809554358918923,50.58131087494299],[3.181000540027883,50.581212325417496],[3.181045672206295,50.581109969289486],[3.1812690443509553,50.580654882722385],[3.183034072854781,50.577017402920376],[3.184390122902272,50.57401845841476],[3.1832812848474816,50.573807940283515],[3.1830633341580565,50.57390736982664],[3.183048222792303,50.57395636223025],[3.1829968625954272,50.57403974960748],[3.1829332439860405,50.57414756468911],[3.1828058818510874,50.574277320295465],[3.1827688553677094,50.57431300237592],[3.1827190970346666,50.57435414383578],[3.1826795237733823,50.57438950729858],[3.1826469111266933,50.57442406748781],[3.182621580507471,50.5744514426266],[3.1825867154842475,50.57447570646303],[3.1825105850953572,50.574473309005256],[3.182434270558602,50.57443785939894],[3.1823582349320674,50.574399541136536],[3.182267281667995,50.57435296545509],[3.18218544171502,50.57432724422321],[3.1820829293655857,50.57429710378431],[3.181981635734561,50.5742652630439],[3.1817026702364863,50.57425126752126],[3.181607144033804,50.57422995395027],[3.1815488050102676,50.574199262250914],[3.181542815640906,50.574140355604456],[3.1815420325412918,50.57408699083977],[3.1815702488893707,50.574029766396706],[3.181595707762149,50.57397661436575],[3.1816139058184016,50.573939063929586],[3.181687447063836,50.57387745068554],[3.1817590179756285,50.573790522895145],[3.1818022840214923,50.573738133034865],[3.181916031287697,50.57364565049942],[3.1819890828201967,50.573620565472126],[3.182104120380817,50.573578204314636],[3.1822112052420604,50.573542577362474],[3.1822301163605715,50.57342039462869],[3.1821958614184442,50.57332212889169],[3.1822588156637144,50.57322751865718],[3.18235255198377,50.57305343012078],[3.182427261360605,50.57288479194347],[3.182632046565455,50.57240562915047],[3.182626137562287,50.571677254616326],[3.1823091193125395,50.57110130996895],[3.182224052336199,50.570957956074956],[3.182216579294749,50.570807213249424],[3.182273026108393,50.57071487966633],[3.1824327135311625,50.570579607349046],[3.182583523626316,50.57044998932098],[3.182602601975179,50.57038509626402],[3.1825844368189644,50.570212867248465],[3.1825483264850893,50.57002928662985],[3.182192308030574,50.569430221563294],[3.1821195603941606,50.56930284398294],[3.1819313837888927,50.56882534042586],[3.181752511083469,50.56835985540295],[3.181689092402223,50.56821376470471],[3.1815410126389585,50.568052976477205],[3.1813777302419033,50.56790989114326],[3.1812367321697756,50.5677696749669],[3.1810827400111306,50.567560336702755],[3.1809828227711936,50.56746947665134],[3.180609636258361,50.56729714991323],[3.1804701465642546,50.567212018511974],[3.1803532981538405,50.567100329900725],[3.1801795514347697,50.56697433075068],[3.179815766205842,50.566700799283225],[3.1795765229365713,50.56645572878696],[3.1794604132858555,50.56632990754181],[3.1793590459978747,50.56627199902421],[3.1790668625625695,50.56622970588795],[3.1789216790001893,50.56618074331685],[3.1783893228892013,50.565669866907285],[3.1778266959849386,50.56513000663527],[3.1774535074632704,50.56480621495621],[3.177243745115908,50.564623715925265],[3.1770944309508984,50.56449253295266],[3.176984167321224,50.56451336897511],[3.1768171222325483,50.564392102100555],[3.1770752935674174,50.564114333151835],[3.1767867805907413,50.563929349242734],[3.176488013378063,50.563737607306706],[3.1761926298305867,50.56354924201777],[3.17591398947496,50.56335631859536],[3.1750327996399164,50.56274947151398],[3.174770686558851,50.56264172974566],[3.1739491297872666,50.562170706101625],[3.173901655389646,50.56223004832253],[3.1737984769527827,50.562315624351534],[3.17319423644616,50.562772188733916],[3.1724446107392255,50.563390474564976],[3.1721221620740216,50.563658490528226],[3.1717641459076606,50.563927347759375],[3.1711891635542857,50.56429440643154],[3.1704009823952863,50.5647643891267],[3.1695153842058224,50.56529536932912],[3.1686980685952855,50.565773545380225],[3.1684260867692924,50.565923424274196],[3.167887542532882,50.5662167717862],[3.1676162355886524,50.566362153087624],[3.16750500004653,50.56642579634044],[3.1673978341590154,50.56653338418752],[3.167350803724516,50.56665518125402],[3.1673495906658506,50.56677274361719],[3.167389026501703,50.56687277644492],[3.1675011580511927,50.567017430158586],[3.1678071202991163,50.56722931649884],[3.1680250903199445,50.567361118796356],[3.168163999405566,50.56744479628051],[3.1683774918793586,50.567584173611095],[3.1684105650316408,50.56764973060422],[3.168396337657319,50.5677034452856],[3.168496451838698,50.56779646857395],[3.168885123188409,50.568067017043546],[3.169252631147393,50.568339806265016],[3.1694605136066247,50.56849477985877],[3.1697372891977187,50.568652918780764],[3.170055565818709,50.568805918986655],[3.170207601902443,50.56888303583259],[3.170282365442258,50.568898999881185],[3.170343095880316,50.568884737036825],[3.17051750606889,50.56880094528212],[3.170725086173644,50.56894670671892],[3.1711719283169106,50.56925166226116],[3.172678105607386,50.568894933664495],[3.1741955341069774,50.56855045035307],[3.176663000992374,50.56795028367234],[3.177925865299037,50.567643250530665],[3.178570090793738,50.56748546680345],[3.179024972249173,50.567375909190616],[3.1791459202856363,50.56736729287681],[3.179267981309175,50.56741805332985],[3.179383523884458,50.56762599907873],[3.179509035993905,50.56788814968551],[3.1796149637094033,50.5679827680914],[3.1797498473259314,50.56805636741386],[3.179970276575245,50.568117214696116],[3.1801037614957144,50.568137044298034],[3.1804493539145966,50.5688127755959],[3.18063292229013,50.56916522839968],[3.180740692133676,50.569378441410706],[3.1808050723420402,50.56952565865929],[3.1809404039111913,50.5698638989723],[3.181144446471623,50.57110220638292],[3.1809517130359435,50.571162024157616],[3.1811042085750705,50.57141438344216],[3.1812173248282534,50.57160612698206],[3.1813728398356393,50.57185757972615],[3.181402316928658,50.57203610446581],[3.1813540455045444,50.57220671243877],[3.1812692507545988,50.5724082486112],[3.1811393216898787,50.572718833925535],[3.1811666479281158,50.572770680334685],[3.181208227976901,50.57281121104114],[3.181281879098808,50.57283363664324],[3.181493313833502,50.5728408889561],[3.1816610962747536,50.572848707057716],[3.1824140939579033,50.5728837677472],[3.1823424750438614,50.57305188755099],[3.182248630861257,50.57322501947654],[3.1821835617162297,50.573318760281914],[3.1822546859314365,50.5735266453446],[3.1824601845415703,50.57356962174924],[3.182835841613934,50.573645947634745],[3.1830498602532864,50.57376252313066],[3.18307923462529,50.57384100809459],[3.183284790285718,50.57379631096589],[3.1843911233073534,50.57400584259615],[3.1830488776959474,50.577023046700496],[3.181259523501102,50.5806519036159],[3.1810352418956733,50.58110732644584],[3.180752210939346,50.58102893136737],[3.178653862649668,50.582423926300464],[3.1775952595804426,50.58311889592653],[3.177068453574435,50.58346633443708],[3.1768029011110457,50.58364070910575],[3.176669160863767,50.58372846113662],[3.176538794451659,50.583815280367276],[3.1764358755249873,50.583881281823466],[3.176390256971004,50.583853733645824],[3.1757710373481345,50.58428488159715],[3.1755833015426536,50.58441853608778],[3.175400155568976,50.584527245308166],[3.174994122625776,50.584744697721874],[3.1748491040794136,50.584677206644415],[3.1744467706891726,50.58494741068307],[3.174137686043352,50.585162229104185],[3.1738247849026493,50.585374618101184],[3.173512791540375,50.58558752094149],[3.1733545504316893,50.585695427140536],[3.1732293397724582,50.58578178776824],[3.1731878101303153,50.58580326423552],[3.1724115584543853,50.586210665178726],[3.1718361856895356,50.586512781844576],[3.1715928862029443,50.58661244296724],[3.170865347695539,50.58692034977702],[3.1705036601120398,50.58707169710368],[3.1701347221475658,50.587226335857025],[3.169885703507404,50.5873321624112],[3.169781803299948,50.58737458708947],[3.1696369434117457,50.58742481077991],[3.169191809499125,50.58685664236941],[3.168910851447805,50.58698246884275],[3.1685995891602374,50.587094394037194],[3.168367631349028,50.58713704249641],[3.1681472554865593,50.58715896778787],[3.1677630437368123,50.587169476661344],[3.167575752503865,50.5871635832302],[3.1673886175719588,50.587140911662146],[3.167286998367473,50.58712642704225],[3.1672405948452536,50.58712043460375],[3.1672276969428594,50.58714053092547],[3.167200053298984,50.5872009060044],[3.167175234486848,50.58731232141372],[3.167197723892116,50.588230879201035]],"type":"LineString"},"id":0},{"type":"Feature","properties":{"id":"finish"},"geometry":{"coordinates":[3.1671987797043926,50.588232513650695],"type":"Point"}},{"type":"Feature","properties":{"id":"start"},"geometry":{"coordinates":[3.167047880574671,50.5889003649161],"type":"Point"}},{"type":"Feature","properties":{"id":"food"},"geometry":{"coordinates":[3.181527964355979,50.574190524927644],"type":"Point"},"id":3},{"type":"Feature","properties":{"id":"food"},"geometry":{"coordinates":[3.1673462730363724,50.566597859714335],"type":"Point"},"id":4}]}