{"type":"FeatureCollection","features":[{"type":"Feature","properties":{"id":"start"},"geometry":{"coordinates":[3.167047880574671,50.5889003649161],"type":"Point"},"id":0},{"type":"Feature","properties":{},"geometry":{"coordinates":[[3.1670480275564046,50.58890027069776],[3.1671320586554543,50.589125988261145],[3.1672811643806256,50.58952448758728],[3.1674894160100564,50.59006683327479],[3.1675635362574894,50.59021759134478],[3.1675927058390414,50.59029331492016],[3.16763588756001,50.59035993845191],[3.167639245715236,50.59052325099833],[3.1676033970614696,50.590688384781544],[3.167543670041084,50.590834173120044],[3.169267475308743,50.59077050964029],[3.1696609835733653,50.590747694603195],[3.170076341157319,50.590724257439966],[3.1701270723222343,50.59071243625968],[3.1707102466465518,50.59045997821508],[3.171000066471813,50.590333280314525],[3.1711539524468333,50.5902662770294],[3.171252926373592,50.590223312160035],[3.171295479243412,50.59020717845419],[3.1713825278190484,50.590166385805276],[3.171743204715227,50.590005041441714],[3.1722135768366826,50.58979515048472],[3.172503973656603,50.5896628636238],[3.1730933085215867,50.5894053196555],[3.1743163969953727,50.58886904752711],[3.1755324651668673,50.58831594643999],[3.178137035960134,50.58713107422433],[3.1786149482678354,50.58691314197596],[3.179050429736918,50.586741816298044],[3.179493883264783,50.58654548710673],[3.179717374077221,50.58644860434427],[3.1799275467301413,50.586352936293544],[3.1803445513073854,50.58616399295363],[3.180567693756977,50.58606171971449],[3.180734776278694,50.58599111407106],[3.1807734734862834,50.58602966948925],[3.1809532008824704,50.58635145222458],[3.1811181292322885,50.58668120700739],[3.1812689555838602,50.58696605045972],[3.1814172638831906,50.58725137764924],[3.181575126943912,50.587552952429434],[3.1817470929211424,50.587856755413725],[3.1819081063389234,50.588102350409685],[3.1820736766503614,50.588299072039604],[3.1821629182796016,50.58843736282318],[3.1822270452511816,50.58859838481611],[3.1823081344070943,50.58888583181664],[3.182539002499226,50.588882312365755],[3.182791710076117,50.58886937809163],[3.1830209460798926,50.58886473336106],[3.1831276472113643,50.58887991710751],[3.183215206982908,50.58891308358517],[3.1838399055191076,50.58916447119617],[3.184188619040384,50.5892997244016],[3.1844460848021754,50.58942260130357],[3.184952177813088,50.58970686768821],[3.185335236152305,50.58992778449852],[3.1853840177743145,50.589966185567675],[3.185424278084497,50.59001189573962],[3.18550527964625,50.59014566944493],[3.1855713609153042,50.59029446401071],[3.185730555305099,50.59056927915495],[3.1859935309174574,50.59080929998882],[3.186248273039297,50.59103028152512],[3.186910520725519,50.59142372760115],[3.1870901438701082,50.59155900012411],[3.1872274791304847,50.59151422059739],[3.18736345024994,50.59147246554938],[3.187492100211827,50.59142111735254],[3.187712741507596,50.59133117131242],[3.187628126290633,50.59120657240135],[3.187344349065313,50.59087374580338],[3.186325754331058,50.58967236108516],[3.1853038431137435,50.588475367231425],[3.1842749659687897,50.58727763274961],[3.183759996293414,50.5866795983423],[3.1835024950454294,50.58637899362704],[3.1832539884823348,50.58609212944057],[3.1824787138415545,50.5851963508792],[3.1819016515483582,50.584531708995655],[3.181229121235539,50.58375448683846],[3.180848531292515,50.583316981965744],[3.1805361460538393,50.58295629384176],[3.1804042659254037,50.58280708946978],[3.180379862668161,50.58277340825262],[3.1803653315639053,50.58270398782544],[3.1803578255149603,50.582637958464375],[3.180698981896583,50.58188047748067],[3.1808703732184043,50.58150015130529],[3.1809554358918923,50.58131087494299],[3.181000540027883,50.581212325417496],[3.181045672206295,50.581109969289486],[3.180752210939346,50.58102893136737],[3.178653862649668,50.582423926300464],[3.1775952595804426,50.58311889592653],[3.177068453574435,50.58346633443708],[3.1768029011110457,50.58364070910575],[3.176669160863767,50.58372846113662],[3.176538794451659,50.583815280367276],[3.1764358755249873,50.583881281823466],[3.176390256971004,50.583853733645824],[3.1757710373481345,50.58428488159715],[3.1755833015426536,50.58441853608778],[3.175400155568976,50.584527245308166],[3.174994122625776,50.584744697721874],[3.1748491040794136,50.584677206644415],[3.1744467706891726,50.58494741068307],[3.174137686043352,50.585162229104185],[3.1738247849026493,50.585374618101184],[3.173512791540375,50.58558752094149],[3.1733545504316893,50.585695427140536],[3.1732293397724582,50.58578178776824],[3.1731878101303153,50.58580326423552],[3.1724115584543853,50.586210665178726],[3.1718361856895356,50.586512781844576],[3.1715928862029443,50.58661244296724],[3.170865347695539,50.58692034977702],[3.1705036601120398,50.58707169710368],[3.1701347221475658,50.587226335857025],[3.169885703507404,50.5873321624112],[3.169781803299948,50.58737458708947],[3.1696369434117457,50.58742481077991],[3.169191809499125,50.58685664236941],[3.168910851447805,50.58698246884275],[3.1685995891602374,50.587094394037194],[3.168367631349028,50.58713704249641],[3.1681472554865593,50.58715896778787],[3.1677630437368123,50.587169476661344],[3.167575752503865,50.5871635832302],[3.1673886175719588,50.587140911662146],[3.167286998367473,50.58712642704225],[3.1672405948452536,50.58712043460375],[3.1672276969428594,50.58714053092547],[3.167200053298984,50.5872009060044],[3.167175234486848,50.58731232141372],[3.167197723892116,50.588230879201035]],"type":"LineString"},"id":1},{"type":"Feature","properties":{"id":"finish"},"geometry":{"coordinates":[3.1671987797043926,50.588232513650695],"type":"Point"},"id":2},{"type":"Feature","properties":{"id":"food"},"geometry":{"coordinates":[3.1871846116428344,50.5915370756245],"type":"Point"},"id":3}]}