{"type":"FeatureCollection","features":[{"type":"Feature","properties":{},"geometry":{"coordinates":[3.1673298227759688,50.566650641380136],"type":"Point"}},{"type":"Feature","properties":{},"geometry":{"coordinates":[[3.167344907331227,50.566680947958275],[3.1673512357829168,50.56677865993706],[3.1673961417645273,50.56688702766516],[3.167488659284558,50.56701053459797],[3.167572296230998,50.56707978741757],[3.1676596158791686,50.56713656337554],[3.167898217741797,50.56728626711437],[3.1683535077637757,50.567567034823874],[3.168390899939597,50.56760557738957],[3.1684167025157244,50.56765129606893],[3.168591797592958,50.56764897111178],[3.169052345647624,50.56752575596702],[3.1693322859460387,50.56745717726142],[3.169530127269434,50.567421405527156],[3.1697956385129284,50.56735869872032],[3.170041558542652,50.56729241301102],[3.170217937908361,50.567238281138216],[3.1705907523534167,50.56709904582387],[3.1707718139299708,50.56703265725824],[3.171039789853732,50.566930171257326],[3.171345731648054,50.56680601582403],[3.171660001324575,50.56667694352593],[3.171511374223014,50.56654258556472],[3.1713420829344723,50.566387523288675],[3.1711430511647976,50.566289901251764],[3.17085366484589,50.566114695049116],[3.170541947525236,50.565923694044244],[3.170425786607823,50.56586811511433],[3.1703192455254503,50.565819777272445],[3.1701878014110347,50.56573688066253],[3.1695892221684865,50.565335963408955],[3.169519807987152,50.5652922330446],[3.1689762506437797,50.565610341849776],[3.1686323468304645,50.56580765187967],[3.168272222733707,50.5660058568095],[3.167548338304745,50.56639790899641],[3.167458852179005,50.56646983316881],[3.167387756156754,50.566559525907934],[3.1673447827133145,50.56668105663931]],"type":"LineString"}}]}