{"type":"FeatureCollection","features":[{"type":"Feature","properties":{},"geometry":{"coordinates":[[3.1670493928902204,50.588907731828215],[3.1671219292963144,50.589100065928164],[3.167190198855508,50.58928698141355],[3.167246729447669,50.589450116850486],[3.1673186774701776,50.58961977710604],[3.1673854863520035,50.589802487466585],[3.1674577269678537,50.58998135383311],[3.167521437410585,50.590132661033806],[3.1675960860480927,50.59030388235121],[3.1676490624990663,50.59042465415612],[3.1676129421911696,50.590598931910534],[3.1675816379237745,50.59072580528752],[3.1675358855335105,50.59083128859359],[3.1675888619859904,50.59083587481885],[3.168145114730237,50.59081600117261],[3.168742303822853,50.59079154128838],[3.169281948126013,50.59077015541382],[3.16943009656174,50.590761890466666],[3.1696777689197404,50.590747826637596],[3.1700067915193983,50.590729161540196],[3.1700843371194836,50.59072245854063],[3.170135594381165,50.59070814581314],[3.170731006111538,50.59045195547168],[3.1710907347766266,50.59029522425783],[3.1711841637006337,50.59025307645418],[3.1712745836059284,50.5902144763716],[3.171146536070051,50.59011126811776],[3.170955360592421,50.590015359027376],[3.1707242859843516,50.589909791248985],[3.170482281510084,50.58979863497401],[3.1698887955973563,50.58953081728633],[3.1693246090501206,50.589269564323295],[3.169224822905778,50.589237857057],[3.16913745616636,50.58919959229077],[3.1690223057473412,50.58915181308164],[3.168919698995633,50.58911531575615],[3.1687675432038116,50.58907097964473],[3.1686990102289903,50.589052005043314],[3.1685887718773027,50.58900938122665],[3.168531163267316,50.588987050626244],[3.168474077309458,50.58896272909689],[3.1683726688403144,50.58891524544056],[3.1683334196209496,50.58889713380054],[3.1682858079570524,50.58885977648654],[3.168241792459677,50.588826528802386],[3.168186857584776,50.58878267420297],[3.168147273185371,50.58872516406555],[3.1681377194558786,50.588700268413575],[3.1681617612499373,50.58868312394381],[3.1681809800409737,50.588627406174176],[3.168172369529586,50.588581117767944],[3.1681528315130256,50.58853605075238],[3.16811555375379,50.58847083347411],[3.1680666759817084,50.58838436306142],[3.1680342161130484,50.588332427949815],[3.167955117834362,50.58826575331639],[3.16768556890836,50.58804100371562],[3.1675547545060465,50.58810143202658],[3.167407795786313,50.58816769109728],[3.1672013625735946,50.58822238185495],[3.167175911582077,50.58836127930206],[3.1670552748224257,50.58862431624004],[3.1670309539479717,50.58881587871434]],"type":"LineString"}},{"type":"Feature","properties":{"id":"start"},"geometry":{"coordinates":[3.1670498935725675,50.58890781410042],"type":"Point"},"id":1},{"type":"Feature","properties":{"id":"finish"},"geometry":{"coordinates":[3.16703114633313,50.58881606486514],"type":"Point"},"id":2}]}