{"type":"FeatureCollection","features":[{"type":"Feature","properties":{},"geometry":{"coordinates":[[3.171745539375763,50.56393710951065],[3.1712000140974794,50.5642936212256],[3.1702354915072135,50.56485547749517],[3.1695181730975293,50.5652929645331],[3.168009985479621,50.566142370514704],[3.167531028963939,50.56641048979891],[3.167391447998016,50.56655620984264],[3.1673434028348986,50.56671464286342],[3.1674061190749163,50.56690687117013],[3.167529886063954,50.56704578971282],[3.1677744794705074,50.567209892642786],[3.168023043502248,50.56736264642754],[3.1682964239394593,50.56752927127884],[3.168382488690897,50.56759429908085],[3.1684129646960284,50.56764671682277],[3.1684095306004734,50.56770844186488],[3.1684790406860137,50.56777595589615],[3.1685503698078534,50.56783538221009],[3.1687148564840553,50.56794614714173],[3.168994715862402,50.56814630245792],[3.169208180426906,50.568309197078456],[3.169585358233001,50.5685737646408],[3.169745680987219,50.568654404911136],[3.1700177506667115,50.56878888731649],[3.170199778060981,50.56887831060557],[3.170251144353674,50.56889560826186],[3.1703050225595906,50.56889674724333],[3.1703643578719616,50.56887708973184],[3.1705134758771547,50.56880134803616],[3.170661222228695,50.56889894748055],[3.1708389826748826,50.5690213871269],[3.1711784263900227,50.56925449324406],[3.1751184955905307,50.56832506195002],[3.1790365293197214,50.567372303990545],[3.179114607883886,50.56736574018174],[3.1791810604309294,50.56737648407147],[3.179234786090661,50.56739881307736],[3.1792827909910883,50.567428409392605],[3.1794189022107613,50.567702529786295],[3.1795064847023697,50.56787679827683],[3.1795829089762044,50.567961294315324],[3.179709159302234,50.56804027169436],[3.179886610219806,50.568098829132516],[3.180238854603291,50.56815213900934],[3.1802640586618853,50.56813948774277],[3.18039225747495,50.568106152233106],[3.180506797310933,50.568067859213684],[3.1807592923721493,50.56795780994176],[3.1810403019421782,50.56783735039899],[3.181231496620982,50.56776516155265],[3.1811328686024014,50.56762753803895],[3.1810652945608315,50.56753840394869],[3.180999065220851,50.56747925677864],[3.1808029597945455,50.56738785611655],[3.18061467265595,50.567296538325536],[3.1804632158947372,50.56720755989451],[3.1803347781199927,50.567084075579196],[3.1800845658255907,50.56690302536717],[3.179808572266037,50.56669390258965],[3.179576459866496,50.56645164290687],[3.179458823258388,50.56632850542553],[3.179363655543642,50.56627195598173],[3.1790790103145343,50.566232638885765],[3.178922378225341,50.566179267862346],[3.1784871594008517,50.56576511767439],[3.1780548213486197,50.56534822274483],[3.1778155094627367,50.56512201659139],[3.1776021245162824,50.564934237661966],[3.1773642530152344,50.56472633012248],[3.1770928637183307,50.5644924526551],[3.176983225834133,50.56451212975307],[3.1768164649275628,50.5643918120165],[3.177076271349524,50.56411568575443],[3.176302837113467,50.56361880397266],[3.1761117121356595,50.563493748359],[3.1759205871578513,50.56336045556327],[3.175535484826705,50.56309635722206],[3.1750313614971115,50.56274760767191],[3.174771593676189,50.562642047258],[3.174353909920361,50.562403045768946],[3.1739516505306016,50.56217197160069],[3.173874817234465,50.562255441698724],[3.1736216656814324,50.56245150383381],[3.1731913161713274,50.56277206092526],[3.1724447762402765,50.56338677055514],[3.1721234541249466,50.56365752124278],[3.1719917960367656,50.56376489254353],[3.17178102912672,50.56391152276646]],"type":"LineString"}},{"type":"Feature","properties":{},"geometry":{"coordinates":[3.1717640727896708,50.56392471115274],"type":"Point"}}]}